[
    {
        "Altitude(m)": 703071.2155442301,
        "Argument of Periapsis(deg)": 0.011390121186627068,
        "Eccentricity": 0.0,
        "Inclination(deg)": 45.0,
        "Latitude(deg)": 3.3649028645443306,
        "Longitude(deg)": 155.8736123082887,
        "Mean Anomaly(deg)": 175.16961664748084,
        "RAAN(deg)": 79.98924805854179,
        "Satellite Name": "Constellation 1 362",
        "Satellite Number": 362,
        "Semi-Major Axis(m)": 7083131.272910544,
        "Time(s)": 190
    },
    {
        "Altitude(m)": 703075.2121476087,
        "Argument of Periapsis(deg)": 0.011450069192872472,
        "Eccentricity": 0.0,
        "Inclination(deg)": 45.0,
        "Latitude(deg)": 3.3217566819312285,
        "Longitude(deg)": 155.9125111326864,
        "Mean Anomaly(deg)": 175.2303177877307,
        "RAAN(deg)": 79.98919146937622,
        "Satellite Name": "Constellation 1 362",
        "Satellite Number": 362,
        "Semi-Major Axis(m)": 7083131.272910544,
        "Time(s)": 191
    },
    {
        "Altitude(m)": 703079.2296063625,
        "Argument of Periapsis(deg)": 0.01151001719911788,
        "Eccentricity": 0.0,
        "Inclination(deg)": 45.0,
        "Latitude(deg)": 3.2786086426834324,
        "Longitude(deg)": 155.9514061654305,
        "Mean Anomaly(deg)": 175.29101892798062,
        "RAAN(deg)": 79.98913488021066,
        "Satellite Name": "Constellation 1 362",
        "Satellite Number": 362,
        "Semi-Major Axis(m)": 7083131.272910544,
        "Time(s)": 192
    },
    {
        "Altitude(m)": 703083.267921239,
        "Argument of Periapsis(deg)": 0.011569965205363285,
        "Eccentricity": 0.0,
        "Inclination(deg)": 45.0,
        "Latitude(deg)": 3.235458772026669,
        "Longitude(deg)": 155.99029728706614,
        "Mean Anomaly(deg)": 175.35172006823058,
        "RAAN(deg)": 79.98907829104508,
        "Satellite Name": "Constellation 1 362",
        "Satellite Number": 362,
        "Semi-Major Axis(m)": 7083131.272910544,
        "Time(s)": 193
    },
    {
        "Altitude(m)": 703087.3270928817,
        "Argument of Periapsis(deg)": 0.01162991321160869,
        "Eccentricity": 0.0,
        "Inclination(deg)": 45.0,
        "Latitude(deg)": 3.1923070951790344,
        "Longitude(deg)": 156.0291848824207,
        "Mean Anomaly(deg)": 175.41242120848042,
        "RAAN(deg)": 79.98902170187951,
        "Satellite Name": "Constellation 1 362",
        "Satellite Number": 362,
        "Semi-Major Axis(m)": 7083131.272910544,
        "Time(s)": 194
    },
    {
        "Altitude(m)": 703091.4071218554,
        "Argument of Periapsis(deg)": 0.011689861217854095,
        "Eccentricity": 0.0,
        "Inclination(deg)": 45.0,
        "Latitude(deg)": 3.149153637351759,
        "Longitude(deg)": 156.06806883202225,
        "Mean Anomaly(deg)": 175.47312234873033,
        "RAAN(deg)": 79.98896511271396,
        "Satellite Name": "Constellation 1 362",
        "Satellite Number": 362,
        "Semi-Major Axis(m)": 7083131.272910544,
        "Time(s)": 195
    },
    {
        "Altitude(m)": 703095.5080086222,
        "Argument of Periapsis(deg)": 0.0117498092240995,
        "Eccentricity": 0.0,
        "Inclination(deg)": 45.0,
        "Latitude(deg)": 3.1059984237490617,
        "Longitude(deg)": 156.10694918448755,
        "Mean Anomaly(deg)": 175.5338234889802,
        "RAAN(deg)": 79.98890852354837,
        "Satellite Name": "Constellation 1 362",
        "Satellite Number": 362,
        "Semi-Major Axis(m)": 7083131.272910544,
        "Time(s)": 196
    },
    {
        "Altitude(m)": 703099.6297535535,
        "Argument of Periapsis(deg)": 0.011809757230344905,
        "Eccentricity": 0.0,
        "Inclination(deg)": 45.0,
        "Latitude(deg)": 3.0628414795681014,
        "Longitude(deg)": 156.14582598842514,
        "Mean Anomaly(deg)": 175.59452462923016,
        "RAAN(deg)": 79.98885193438281,
        "Satellite Name": "Constellation 1 362",
        "Satellite Number": 362,
        "Semi-Major Axis(m)": 7083131.272910544,
        "Time(s)": 197
    },
    {
        "Altitude(m)": 703103.7723569302,
        "Argument of Periapsis(deg)": 0.011869705236590313,
        "Eccentricity": 0.0,
        "Inclination(deg)": 45.0,
        "Latitude(deg)": 3.019682829999268,
        "Longitude(deg)": 156.18469929243525,
        "Mean Anomaly(deg)": 175.65522576948,
        "RAAN(deg)": 79.98879534521723,
        "Satellite Name": "Constellation 1 362",
        "Satellite Number": 362,
        "Semi-Major Axis(m)": 7083131.272910544,
        "Time(s)": 198
    },
    {
        "Altitude(m)": 703107.9358189342,
        "Argument of Periapsis(deg)": 0.011929653242835719,
        "Eccentricity": 0.0,
        "Inclination(deg)": 45.0,
        "Latitude(deg)": 2.9765225002259896,
        "Longitude(deg)": 156.2235691451104,
        "Mean Anomaly(deg)": 175.71592690972994,
        "RAAN(deg)": 79.98873875605167,
        "Satellite Name": "Constellation 1 362",
        "Satellite Number": 362,
        "Semi-Major Axis(m)": 7083131.272910544,
        "Time(s)": 199
    }
]